H1 CPF  1  HTS 2022  9 28 12  7711 larets           NONE
H2  0304206 5557    27944 2022 09 28  0  0  0 2022 10 03  0  0  0   180 1 1  0 0 0
H5  0.0560 
H9 
10 0 59851  34920.00000  0     912646.928    4270832.025    5552084.541
10 0 59851  35100.00000  0    1482129.099    5114487.472    4644305.198
10 0 59851  35280.00000  0    2017371.509    5758115.370    3566828.625
10 0 59851  35460.00000  0    2493382.773    6179500.472    2358967.635
10 0 59851  35640.00000  0    2886847.472    6365137.389    1064848.568
10 0 59851  35820.00000  0    3177223.962    6310694.773    -268213.879
10 0 59851  36000.00000  0    3347744.903    6021102.737   -1591472.652
10 0 59851  36180.00000  0    3386272.911    5510261.297   -2856563.815
10 0 59851  36360.00000  0    3285965.109    4800382.761   -4017305.593
10 0 59851  36540.00000  0    3045709.452    3921000.125   -5031400.001
10 0 59851  36720.00000  0    2670314.463    2907702.922   -5861963.622
10 0 59851  36900.00000  0    2170450.281    1800665.176   -6478836.648
10 0 59851  37080.00000  0    1562346.095     643034.550   -6859629.681
10 0 59851  37260.00000  0     867261.922    -520745.806   -6990487.577
10 0 59851  37440.00000  0     110749.164   -1646625.892   -6866564.673
10 0 59851  37620.00000  0    -678274.948   -2692592.635   -6492198.119
10 0 59851  37800.00000  0   -1468612.024   -3620222.632   -5880787.106
10 0 59851  37980.00000  0   -2227997.302   -4396101.497   -5054366.218
10 0 59851  38160.00000  0   -2924406.436   -4993061.500   -4042878.032
10 0 59851  38340.00000  0   -3527410.407   -5391189.798   -2883143.929
10 0 59851  38520.00000  0   -4009516.236   -5578554.375   -1617555.269
10 0 59851  38700.00000  0   -4347431.262   -5551609.607    -292522.683
10 0 59851  38880.00000  0   -4523180.466   -5315250.665    1043262.936
10 0 59851  39060.00000  0   -4525012.140   -4882505.262    2340681.706
10 0 59851  39240.00000  0   -4348039.029   -4273872.839    3552059.481
10 0 59851  39420.00000  0   -3994581.552   -3516351.484    4632972.549
10 0 59851  39600.00000  0   -3474198.486   -2642208.580    5543903.291
10 0 59851  39780.00000  0   -2803409.876   -1687566.221    6251674.519
10 0 59851  39960.00000  0   -2005135.477    -690879.193    6730623.463
10 0 59851  40140.00000  0   -1107872.264     308634.499    6963483.343
10 0 59851  40320.00000  0    -144652.013    1272536.572    6941947.696
10 0 59851  40500.00000  0     848177.752    2164633.733    6666930.534
10 0 59851  40680.00000  0    1832318.826    2952324.750    6148516.236
10 0 59851  40860.00000  0    2768987.358    3607783.183    5405603.231
10 0 59851  41040.00000  0    3620435.320    4108946.354    4465250.674
10 0 59851  41220.00000  0    4351474.154    4440272.668    3361731.000
10 0 59851  41400.00000  0    4930943.343    4593241.763    2135316.150
10 0 59851  41580.00000  0    5333057.332    4566568.135     830816.541
10 0 59851  41760.00000  0    5538560.822    4366114.196    -504067.281
10 0 59851  41940.00000  0    5535629.816    4004501.562   -1820521.590
10 0 59851  42120.00000  0    5320468.903    3500440.058   -3070439.596
10 0 59851  42300.00000  0    4897578.386    2877811.564   -4208205.993
10 0 59851  42480.00000  0    4279679.344    2164560.402   -5192372.828
10 0 59851  42660.00000  0    3487302.839    1391442.564   -5987156.126
10 0 59851  42840.00000  0    2548071.531     590702.515   -6563699.415
10 0 59851  43020.00000  0    1495708.894    -205261.783   -6901071.947
10 0 59851  43200.00000  0     368822.890    -965192.944   -6986983.376
10 0 59851  43380.00000  0    -790500.231   -1660184.538   -6818206.126
10 0 59851  43560.00000  0   -1938244.554   -2264765.716   -6400697.788
10 0 59851  43740.00000  0   -3030113.497   -2757832.907   -5749424.403
10 0 59851  43920.00000  0   -4023228.691   -3123398.254   -4887881.352
10 0 59851  44100.00000  0   -4877831.316   -3351132.718   -3847312.630
10 0 59851  44280.00000  0   -5558915.557   -3436675.136   -2665629.611
10 0 59851  44460.00000  0   -6037720.564   -3381689.285   -1386055.819
10 0 59851  44640.00000  0   -6293002.920   -3193659.543     -55536.858
10 0 59851  44820.00000  0   -6312018.276   -2885429.722    1277022.499
10 0 59851  45000.00000  0   -6091152.817   -2474505.269    2562620.449
10 0 59851  45180.00000  0   -5636159.633   -1982153.113    3754027.859
10 0 59851  45360.00000  0   -4961995.489   -1432351.902    4807574.063
10 0 59851  45540.00000  0   -4092266.588    -850648.815    5684767.203
10 0 59851  45720.00000  0   -3058332.236    -262989.606    6353683.875
10 0 59851  45900.00000  0   -1898109.409     305425.790    6790094.064
10 0 59851  46080.00000  0    -654632.739     831207.581    6978283.694
10 0 59851  46260.00000  0     625561.390    1293720.439    6911567.750
10 0 59851  46440.00000  0    1894172.339    1675880.510    6592494.322
10 0 59851  46620.00000  0    3102943.162    1964778.912    6032739.907
10 0 59851  46800.00000  0    4205484.951    2152112.272    5252701.646
10 0 59851  46980.00000  0    5159059.439    2234409.704    4280789.961
10 0 59851  47160.00000  0    5926258.797    2213051.459    3152437.137
10 0 59851  47340.00000  0    6476515.400    2094072.559    1908830.594
10 0 59851  47520.00000  0    6787363.729    1887760.342     595417.715
10 0 59851  47700.00000  0    6845395.623    1608061.982    -739771.328
10 0 59851  47880.00000  0    6646849.430    1271832.091   -2047913.228
10 0 59851  48060.00000  0    6197805.488     897954.551   -3281210.546
10 0 59851  48240.00000  0    5513978.283     506387.148   -4394666.024
10 0 59851  48420.00000  0    4620114.138     117181.197   -5347731.989
10 0 59851  48600.00000  0    3549036.821    -250475.168   -6105765.305
10 0 59851  48780.00000  0    2340396.832    -579143.560   -6641246.698
10 0 59851  48960.00000  0    1039176.679    -853915.956   -6934731.072
10 0 59851  49140.00000  0    -305982.839   -1063059.397   -6975510.918
10 0 59851  49320.00000  0   -1644582.906   -1198500.565   -6761985.763
10 0 59851  49500.00000  0   -2926137.017   -1256136.474   -6301732.623
10 0 59851  49680.00000  0   -4102055.778   -1235960.764   -5611272.336
10 0 59851  49860.00000  0   -5127492.543   -1142002.646   -4715538.845
10 0 59851  50040.00000  0   -5963092.722    -982077.870   -3647043.466
10 0 59851  50220.00000  0   -6576571.480    -767358.630   -2444745.301
10 0 59851  50400.00000  0   -6944046.042    -511776.815   -1152651.061
10 0 59851  50580.00000  0   -7051048.818    -231286.668     181811.664
10 0 59851  50760.00000  0   -6893153.900      56981.141    1509585.510
10 0 59851  50940.00000  0   -6476178.793     335624.396    2781850.011
10 0 59851  51120.00000  0   -5815950.106     587884.117    3951881.959
10 0 59851  51300.00000  0   -4937642.872     798520.980    4976818.028
10 0 59851  51480.00000  0   -3874739.761     954605.144    5819237.181
10 0 59851  51660.00000  0   -2667676.740    1046181.279    6448505.918
10 0 59851  51840.00000  0   -1362242.172    1066779.518    6841851.493
10 0 59851  52020.00000  0      -7798.659    1013754.269    6985131.144
10 0 59851  52200.00000  0    1344592.471     888437.779    6873287.588
10 0 59851  52380.00000  0    2644083.137     696106.216    6510498.444
10 0 59851  52560.00000  0    3841933.389     445760.452    5910020.177
10 0 59851  52740.00000  0    4893333.966     149728.094    5093727.280
10 0 59851  52920.00000  0    5759094.117    -176900.696    4091353.164
10 0 59851  53100.00000  0    6407137.489    -516982.096    2939447.047
10 0 59851  53280.00000  0    6813742.778    -852141.529    1680065.464
10 0 59851  53460.00000  0    6964462.241   -1163676.735     359239.222
10 0 59851  53640.00000  0    6854676.519   -1433496.809    -974725.803
10 0 59851  53820.00000  0    6489746.941   -1645048.921   -2273051.712
10 0 59851  54000.00000  0    5884753.162   -1784182.832   -3488308.753
10 0 59851  54180.00000  0    5063834.833   -1839908.867   -4576170.635
10 0 59851  54360.00000  0    4059179.449   -1805010.630   -5497031.967
10 0 59851  54540.00000  0    2909709.501   -1676486.665   -6217427.891
10 0 59851  54720.00000  0    1659537.199   -1455801.501   -6711206.169
10 0 59851  54900.00000  0     356258.653   -1148935.952   -6960429.463
10 0 59851  55080.00000  0    -950851.499    -766239.375   -6955987.025
10 0 59851  55260.00000  0   -2212680.997    -322087.908   -6697910.929
10 0 59851  55440.00000  0   -3382103.506     165643.869   -6195391.271
10 0 59851  55620.00000  0   -4415727.063     676282.061   -5466489.994
10 0 59851  55800.00000  0   -5275522.123    1187203.005   -4537555.059
10 0 59851  55980.00000  0   -5930271.516    1674807.514   -3442333.004
10 0 59851  56160.00000  0   -6356778.028    2115584.531   -2220787.969
10 0 59851  56340.00000  0   -6540766.818    2487211.630    -917657.786
10 0 59851  56520.00000  0   -6477431.731    2769640.465     419206.381
10 0 59851  56700.00000  0   -6171583.097    2946106.596    1740651.261
10 0 59851  56880.00000  0   -5637380.576    3004009.015    2998095.848
10 0 59851  57060.00000  0   -4897667.669    2935609.085    4145378.944
10 0 59851  57240.00000  0   -3982947.565    2738510.538    5140494.214
10 0 59851  57420.00000  0   -2930062.743    2415900.909    5947133.881
10 0 59851  57600.00000  0   -1780652.318    1976550.021    6535991.147
10 0 59851  57780.00000  0    -579458.110    1434565.989    6885778.537
10 0 59851  57960.00000  0     627436.905     808923.899    6983937.584
10 0 59851  58140.00000  0    1794370.655     122789.659    6827042.238
10 0 59851  58320.00000  0    2877813.152    -597337.604    6420895.544
10 0 59851  58500.00000  0    3837976.594   -1322640.773    5780321.404
10 0 59851  58680.00000  0    4640277.389   -2023125.526    4928650.495
10 0 59851  58860.00000  0    5256597.817   -2668848.651    3896908.913
10 0 59851  59040.00000  0    5666306.149   -3231188.715    2722726.545
10 0 59851  59220.00000  0    5856985.609   -3684105.137    1448983.424
99
